STARLINK-3099           
1 49446U 21104AQ  26068.61071912  .00000839  00000+0  70801-4 0  9993
2 49446  53.2169 209.4746 0001327  73.6844 286.4294 15.08845307238900
DISKSAT A               
1 67222U 25305D   26068.54789610  .00013824  00000+0  90452-3 0  9996
2 67222  45.0023 251.6019 0004082 318.1929  41.8634 15.07741062 12266
